P/2011 S1 (Gibbs),e,2.6888,218.8975,192.6086,8.586082,0.0391752,0.20177297,131.8611,11/07.0/2023,2000,g  8.0,4.0
# From MPC 79022
P/2011 UA134 (Spacewatch-PANSTARRS),e,10.4404,40.4026,32.4133,5.610457,0.0741663,0.63007037,325.3036,11/07.0/2023,2000,g 17.5,4.0
# From MPEC 2023-UR6
P/2011 V1 (Boattini),e,7.3843,46.4813,269.6880,3.854911,0.1302215,0.54882040,243.0184,11/07.0/2023,2000,g 15.5,4.0
# From MPC 82718
P/2011 W1 (PANSTARRS),e,3.7175,161.8306,282.8252,4.669825,0.0976682,0.28847251,62.1691,11/07.0/2023,2000,g 11.5,4.0
# From MPC 79342
P/2011 Y2 (Boattini),e,6.3837,309.3427,131.9742,6.235101,0.0633051,0.71088783,269.7729,11/07.0/2023,2000,g 15.0,4.0
# From MPEC 2022-K19
P/2012 B1 (PANSTARRS),e,7.6099,36.2163,162.1966,6.533893,0.0590128,0.40939709,223.0925,11/07.0/2023,2000,g  9.0,4.0
# From MPC 78590
P/2012 C3 (PANSTARRS),e,9.0920,135.3677,344.9542,9.748681,0.0323806,0.63011148,359.9758,10/06.0/2011,2000,g 13.0,4.0
# From MPC 84931
P/2012 F2 (PANSTARRS),e,14.6987,226.9590,33.2756,6.340435,0.0617342,0.54033960,238.9324,11/07.0/2023,2000,g 12.0,4.0
# From MPEC 2022-ED3
P/2012 G1 (PANSTARRS),e,12.1691,283.2596,266.0918,4.164657,0.1159672,0.32902852,131.4575,11/07.0/2023,2000,g 15.0,4.0
# From MPC 80898
P/2012 K3 (Gibbs),e,13.1867,125.8182,172.2238,3.629847,0.1425186,0.42202042,220.0541,11/07.0/2023,2000,g 15.0,4.0
# From MPC 88326
P/2012 NJ (La Sagra),e,84.4998,315.6222,338.4100,8.467669,0.0399998,0.84645496,166.4735,11/07.0/2023,2000,g 14.5,4.0
# From MPC 81470
P/2012 O1 (McNaught),e,7.4278,91.9563,238.3035,3.542157,0.1478436,0.59393545,252.8237,11/07.0/2023,2000,g 17.5,4.0
# From MPC 80899
P/2012 O2 (McNaught),e,24.4648,120.6803,183.4661,3.627403,0.1426627,0.53153206,234.9617,11/07.0/2023,2000,g 17.0,4.0
# From MPC 82320
P/2012 T2 (PANSTARRS),e,12.5701,73.8807,310.8485,5.723941,0.0719716,0.16252530,275.9565,11/07.0/2023,2000,g 10.0,4.0
# From MPC 80900
P/2012 T3 (PANSTARRS),e,9.5580,114.3626,195.5267,6.152538,0.0645836,0.61617433,271.4261,11/07.0/2023,2000,g 15.0,4.0
# From MPC 82720
P/2012 U2 (PANSTARRS),e,10.7635,185.3353,228.2982,7.128691,0.0517833,0.50050058,207.3228,11/07.0/2023,2000,g 12.5,4.0
# From MPC 84024
P/2012 US27 (Siding Spring),e,39.3666,49.2302,0.8379,5.163099,0.0840114,0.64842509,330.6656,11/07.0/2023,2000,g 13.5,4.0
# From MPC 82721
P/2012 WA34 (Lemmon-PANSTARRS),e,6.0790,93.7405,356.4815,4.677641,0.0974235,0.34341408,11.7901,11/07.0/2023,2000,g 13.5,4.0
# From MPC 82721
P/2013 AL76 (Catalina),e,44.8715,146.0087,27.0117,6.499263,0.0594851,0.68670311,237.6642,11/07.0/2023,2000,g 16.0,4.0
# From MPC 91612
P/2013 G1 (Kowalski),e,5.4569,221.3114,51.5091,6.901417,0.0543622,0.51039527,197.0382,11/07.0/2023,2000,g 11.0,4.0
# From MPC 84025
P/2013 G4 (PANSTARRS),e,5.9172,339.5982,214.6011,4.435766,0.1054997,0.40903332,53.3761,11/07.0/2023,2000,g 15.0,4.0
# From MPC 91613
P/2013 J2 (McNaught),e,15.5099,289.3509,37.8657,6.224434,0.0634679,0.65680053,236.0843,11/07.0/2023,2000,g 13.0,4.0
# From MPC 86229
P/2013 N3 (PANSTARRS),e,2.1708,17.5289,323.9533,7.398697,0.0489746,0.59238392,173.8117,11/07.0/2023,2000,g 13.0,4.0
# From MPC 85834
P/2013 N5 (PANSTARRS),e,23.4515,187.1735,176.9494,6.797061,0.0556189,0.73233021,209.7961,11/07.0/2023,2000,g 17.0,4.0
# From MPC 85834
P/2013 P1 (PANSTARRS),e,18.7098,160.6273,138.2467,8.587220,0.0391674,0.60365182,153.0438,11/07.0/2023,2000,g 12.0,4.0
# From MPEC 2022-V95
P/2013 R3 (Catalina-PANSTARRS),e,0.8651,342.0420,11.2876,3.030959,0.1867815,0.27556040,334.8699,11/07.0/2023,2000,g 14.0,4.0
# From unp
P/2013 R3-A (Catalina-PANSTARRS),e,0.8642,341.9970,11.3664,3.030715,0.1868041,0.27549142,334.9365,11/07.0/2023,2000,g  9.0,4.0
# From MPEC 2015-M77
P/2013 R3-B (Catalina-PANSTARRS),e,0.8654,342.0528,11.3013,3.030934,0.1867839,0.27553649,334.8651,11/07.0/2023,2000,g  9.0,4.0
# From MPC 85835
P/2013 T1 (PANSTARRS),e,24.2921,10.1079,346.1677,5.855331,0.0695628,0.62414798,260.1721,11/07.0/2023,2000,g 16.5,4.0
# From MPC 86643
P/2013 T2 (Schwartz),e,9.4534,0.8209,345.5816,3.492479,0.1510092,0.50074434,216.9998,11/07.0/2023,2000,g 16.0,4.0
# From MPC 91613
P/2013 W1 (PANSTARRS),e,4.6976,117.8295,1.2218,3.486511,0.1513971,0.59326912,174.4929,11/07.0/2023,2000,g 17.5,4.0
# From MPC101095
P/2013 YG46 (Spacewatch),e,7.8584,48.8441,242.6722,3.278218,0.1660532,0.45527916,50.5595,11/07.0/2023,2000,g 10.0,4.0
# From MPC 89728
P/2014 A2 (Hill),e,24.5540,106.6468,356.1425,5.925840,0.0683249,0.64618120,251.3931,11/07.0/2023,2000,g 15.0,4.0
# From MPC 92981
P/2014 A3 (PANSTARRS),e,13.7165,230.0761,214.1144,4.607053,0.0996711,0.24639172,19.7525,11/07.0/2023,2000,g 12.0,4.0
# From MPC102095
P/2014 C1 (TOTAS),e,2.6919,167.8833,23.9973,3.029210,0.1869433,0.45185734,310.8560,11/07.0/2023,2000,g 15.5,4.0
# From MPEC 2022-WD2
C/2014 F3 (Sheppard-Trujillo),e,6.5235,326.0936,4.9141,14.46221,0.0179206,0.60460786,15.9857,11/07.0/2023,2000,g  6.0,4.0
# From MPC 98560
P/2014 L2 (NEOWISE),e,5.1976,149.3613,182.7151,6.307139,0.0622237,0.64733175,211.2682,11/07.0/2023,2000,g 12.0,4.0
# From MPC 90769
P/2014 L3 (Hill),e,6.2645,115.5192,178.6965,8.181315,0.0421182,0.77196172,144.0050,11/07.0/2023,2000,g 16.0,4.0
# From MPC 91614
P/2014 M4 (PANSTARRS),e,3.3444,263.2108,148.0547,5.865962,0.0693738,0.59603785,224.1752,11/07.0/2023,2000,g 15.0,4.0
# From MPEC 2022-K19
P/2014 MG4 (Spacewatch-PANSTARRS),e,9.3647,311.7091,298.9845,5.013925,0.0877884,0.25875139,333.2098,11/07.0/2023,2000,g  9.5,4.0
# From MPC 98560
P/2014 O3 (PANSTARRS),e,7.7916,87.6321,204.7962,7.581731,0.0472119,0.38345236,164.9612,11/07.0/2023,2000,g 10.5,4.0
# From MPEC 2023-TM6
C/2014 OG392 (PANSTARRS),e,9.0328,145.8156,254.6999,12.25990,0.0229601,0.18650791,15.8208,11/07.0/2023,2000,g  6.0,4.0
# From MPC 91616
P/2014 U4 (PANSTARRS),e,6.4273,11.9216,347.8448,3.510183,0.1498682,0.46454469,149.3281,11/07.0/2023,2000,g 18.0,4.0
# From MPEC 2023-V39
C/2014 UN271 (Bernardinelli-Bernstein),h,01/19.1942/2031,95.4330,189.9064,326.1574,1.002564,10.953396,2000,2.5,3.2
# From MPC 95211
P/2014 V1 (PANSTARRS),e,22.5185,166.2147,177.6599,5.479423,0.0768426,0.53411419,246.2244,11/07.0/2023,2000,g 14.0,4.0
# From MPC105542
P/2014 W4 (PANSTARRS),e,15.2872,33.3461,67.6217,6.584436,0.0583346,0.35417629,167.1738,11/07.0/2023,2000,g 11.0,4.0
# From MPC 94281
P/2014 X1 (Elenin),e,26.0521,61.5541,33.8908,6.202343,0.0638073,0.71023717,206.0884,11/07.0/2023,2000,g 15.0,4.0
# From MPC 92275
P/2015 A3 (PANSTARRS),e,172.5466,277.4049,249.5638,7.817512,0.0450922,0.85027021,143.5392,11/07.0/2023,2000,g 20.0,4.0
# From MPC 99270
P/2015 B1 (PANSTARRS),e,18.0655,352.8900,188.7941,9.484195,0.0337445,0.36628617,100.6641,11/07.0/2023,2000,g  8.5,4.0
# From MPC109141
P/2015 B4 (Lemmon-PANSTARRS),e,1.7657,266.0995,227.1546,8.510800,0.0396962,0.56132429,126.9550,11/07.0/2023,2000,g 11.0,4.0
# From MPC101096
P/2015 C1 (TOTAS-Gibbs),e,13.9377,348.7867,178.0302,6.568421,0.0585481,0.56234566,182.6767,11/07.0/2023,2000,g 12.5,4.0
# From MPC109141
P/2015 D5 (Kowalski),e,20.5472,74.0834,39.6033,8.948255,0.0368211,0.49080276,129.0268,11/07.0/2023,2000,g  9.0,4.0
# From MPC 96866
P/2015 D6 (Lemmon-PANSTARRS),e,20.2167,45.7756,124.9586,7.130987,0.0517583,0.36189020,158.2292,11/07.0/2023,2000,g 10.5,4.0
# From MPEC 2021-P47
P/2015 HG16 (PANSTARRS),e,18.9956,57.0658,46.8113,4.802206,0.0936576,0.35021072,327.7836,11/07.0/2023,2000,g 12.5,4.0
# From MPC 95213
P/2015 K5 (PANSTARRS),e,39.9380,134.2554,106.2442,6.727570,0.0564829,0.55147931,174.2308,11/07.0/2023,2000,g 13.5,4.0
# From MPC107684
P/2015 M2 (PANSTARRS),e,3.9684,86.7036,225.9577,7.249133,0.0504981,0.17884965,150.4303,11/07.0/2023,2000,g  8.5,4.0
# From MPC 99819
P/2015 P4 (PANSTARRS),e,8.7196,104.7262,280.6608,6.046646,0.0662876,0.58576250,188.4238,11/07.0/2023,2000,g 14.0,4.0
# From MPEC 2022-K19
P/2015 PD229 (Cameron-ISON),e,2.0234,342.7253,352.7139,7.198537,0.0510314,0.32671495,153.3190,11/07.0/2023,2000,g 11.5,2.0
# From MPC 96867
P/2015 Q2 (Pimentel),e,146.5600,228.5619,244.6803,7.352786,0.0494341,0.75108626,147.3327,11/07.0/2023,2000,g 15.5,4.0
# From MPC 98562
P/2015 R1 (PANSTARRS),e,22.6889,48.3740,300.5518,5.881423,0.0691004,0.63391582,210.7782,11/07.0/2023,2000,g 14.0,4.0
# From MPC 95734
P/2015 R2 (PANSTARRS),e,15.4817,168.6156,149.8566,4.483756,0.1038105,0.45250521,317.9918,11/07.0/2023,2000,g 14.5,4.0
# From MPC102953
P/2015 TO19 (Lemmon-PANSTARRS),e,6.5034,321.6643,89.2235,4.549744,0.1015602,0.35966236,284.1219,11/07.0/2023,2000,g 14.0,4.0
# From MPC110080
P/2015 TP200 (LINEAR),e,8.7831,6.9895,82.4579,7.262500,0.0503587,0.53688768,129.0795,11/07.0/2023,2000,g 11.0,4.0
# From MPC101098
P/2015 W2 (Catalina),e,11.6134,294.1611,117.5658,7.290778,0.0500660,0.63559218,147.8698,11/07.0/2023,2000,g 13.0,4.0
# From MPEC 2023-J29
P/2015 X3 (PANSTARRS),e,24.4186,77.2566,306.8949,5.001726,0.0881098,0.44014056,264.7471,11/07.0/2023,2000,g 15.0,4.0
# From MPC115881
P/2015 X6 (PANSTARRS),e,4.5653,106.9377,329.8109,2.751500,0.2159483,0.17350294,240.8350,11/07.0/2023,2000,g 16.0,4.0
# From MPC100282
P/2016 A2 (Christensen),e,26.4053,291.5953,141.3121,4.753726,0.0950939,0.27119123,291.9222,11/07.0/2023,2000,g 11.5,4.0
# From MPEC 2022-OB6
P/2016 A3 (PANSTARRS),e,8.5131,187.1953,340.8425,7.874515,0.0446034,0.38620615,106.4616,11/07.0/2023,2000,g 10.0,4.0
# From MPC102098
P/2016 A7 (PANSTARRS),e,16.6080,221.4611,352.4962,5.036137,0.0872083,0.56518486,246.0563,11/07.0/2023,2000,g 16.0,4.0
# From MPEC 2021-P47
P/2016 G1 (PANSTARRS),e,10.9713,204.0160,111.1404,2.583551,0.2373442,0.21036271,227.9941,11/07.0/2023,2000,g 14.0,4.0
# From MPEC 2017-D91
P/2016 J1-A (PANSTARRS),e,14.3260,199.9163,47.3994,3.178169,0.1739557,0.22734628,108.3402,11/07.0/2023,2000,g 16.5,4.0
# From MPEC 2017-A77
P/2016 J1-B (PANSTARRS),e,14.3287,199.9216,47.2911,3.177810,0.1739852,0.22719316,108.4958,11/07.0/2023,2000,g 17.0,4.0
# From MPC102099
P/2016 P1 (PANSTARRS),e,24.3900,319.5678,270.5152,3.201252,0.1720775,0.28867144,151.2301,11/07.0/2023,2000,g 15.0,4.0
# From MPEC 2023-R20
